NORAD_CAT_ID,OBJECT_NAME,OBJECT_TYPE,EPOCH,MEAN_MOTION,ECCENTRICITY,INCLINATION,RA_OF_ASC_NODE,ARG_OF_PERICENTER,MEAN_ANOMALY,BSTAR,MEAN_MOTION_DOT,MEAN_MOTION_DDOT,TLE_LINE0,TLE_LINE1,TLE_LINE2,SEMIMAJOR_AXIS,PERIOD,APOGEE,PERIGEE,DECAYED
49156.0,STARLINK-3085,PAYLOAD,2024-03-28 13:10:11,14.98324943,0.0003063,69.9999,247.4846,272.2282,87.8526,5.4603e-05,5.58e-06,0.0,0 STARLINK-3085,1 49156U 21082AC  24088.54874470  .00000558  00000-0  54603-4 0  9999,2 49156  69.9999 247.4846 0003063 272.2282  87.8526 14.98324943141526,6950.209,96.107,574.202,569.945,0.0
49156.0,STARLINK-3085,PAYLOAD,2024-03-29 13:12:12,14.98333757,0.0002806,70.0006,244.9603,267.0489,93.0349,-1.3508e-05,-2.54e-06,0.0,0 STARLINK-3085,1 49156U 21082AC  24089.55014132 -.00000254  00000-0 -13508-4 0  9996,2 49156  70.0006 244.9603 0002806 267.0489  93.0349 14.98333757141677,6950.181,96.107,573.996,570.096,0.0
49156.0,STARLINK-3085,PAYLOAD,2024-03-29 16:24:28,14.98335319,0.0002824,70.0006,244.6235,268.5884,91.4951,2.9708e-06,-5.8e-07,0.0,0 STARLINK-3085,1 49156U 21082AC  24089.68365962 -.00000058  00000-0  29708-5 0  9991,2 49156  70.0006 244.6235 0002824 268.5884  91.4951 14.98335319141699,6950.176,96.107,574.004,570.079,0.0
49156.0,STARLINK-3085,PAYLOAD,2024-03-30 13:14:13,14.98326781,0.0003034,69.9999,242.4348,268.3329,91.7483,3.9824e-05,3.82e-06,0.0,0 STARLINK-3085,1 49156U 21082AC  24090.55154319  .00000382  00000-0  39824-4 0  9999,2 49156  69.9999 242.4348 0003034 268.3329  91.7483 14.98326781141825,6950.203,96.107,574.177,569.959,0.0
49156.0,STARLINK-3085,PAYLOAD,2024-03-31 13:16:13,14.98335416,0.000309,69.9993,239.9085,267.1362,92.9443,5.8101e-05,6e-06,0.0,0 STARLINK-3085,1 49156U 21082AC  24091.55293638  .00000600  00000-0  58101-4 0  9990,2 49156  69.9993 239.9085 0003090 267.1362  92.9443 14.98335416141974,6950.176,96.107,574.189,569.894,0.0
49156.0,STARLINK-3085,PAYLOAD,2024-03-31 19:40:45,14.98337818,0.0003089,70.0,239.2366,269.1562,90.9243,8.6188e-05,9.36e-06,0.0,0 STARLINK-3085,1 49156U 21082AC  24091.81997347  .00000936  00000-0  86188-4 0  9995,2 49156  70.0000 239.2366 0003089 269.1562  90.9243 14.98337818142013,6950.169,96.106,574.181,569.887,0.0
49156.0,STARLINK-3085,PAYLOAD,2024-04-01 03:41:26,14.98327452,0.0003048,70.0002,238.3941,269.3388,90.7422,4.0627e-05,3.92e-06,0.0,0 STARLINK-3085,1 49156U 21082AC  24092.15378018  .00000392  00000-0  40627-4 0  9995,2 49156  70.0002 238.3941 0003048 269.3388  90.7422 14.98327452142062,6950.201,96.107,574.184,569.947,0.0
49156.0,STARLINK-3085,PAYLOAD,2024-04-01 13:18:15,14.98325766,0.0002957,70.0003,237.3847,270.0809,90.0011,-8.2259e-05,-1.074e-05,0.0,0 STARLINK-3085,1 49156U 21082AC  24092.55434610 -.00001074  00000-0 -82259-4 0  9997,2 49156  70.0003 237.3847 0002957 270.0809  90.0011 14.98325766142122,6950.206,96.107,574.126,570.016,0.0
49156.0,STARLINK-3085,PAYLOAD,2024-04-02 11:44:08,14.98330696,0.0003058,70.0001,235.0286,270.067,90.0139,-2.5796e-05,-4.01e-06,0.0,0 STARLINK-3085,1 49156U 21082AC  24093.48898224 -.00000401  00000-0 -25796-4 0  9991,2 49156  70.0001 235.0286 0003058 270.0670  90.0139 14.98330696142265,6950.191,96.107,574.181,569.93,0.0
49156.0,STARLINK-3085,PAYLOAD,2024-04-02 13:20:16,14.98331201,0.0003056,70.0001,234.8602,270.1156,89.9653,-1.9896e-05,-3.3e-06,0.0,0 STARLINK-3085,1 49156U 21082AC  24093.55574174 -.00000330  00000-0 -19896-4 0  9999,2 49156  70.0001 234.8602 0003056 270.1156  89.9653 14.98331201142274,6950.189,96.107,574.178,569.93,0.0
49156.0,STARLINK-3085,PAYLOAD,2024-04-02 19:44:47,14.98336281,0.0003032,70.0003,234.187,270.5472,89.534,1.2595e-05,5.7e-07,0.0,0 STARLINK-3085,1 49156U 21082AC  24093.82277717  .00000057  00000-0  12595-4 0  9995,2 49156  70.0003 234.1870 0003032 270.5472  89.5340 14.98336281142312,6950.173,96.107,574.146,569.931,0.0
49156.0,STARLINK-3085,PAYLOAD,2024-04-03 11:46:08,14.98327833,0.0003041,70.0002,232.5038,270.4188,89.6622,9.3183e-05,1.019e-05,0.0,0 STARLINK-3085,1 49156U 21082AC  24094.49037999  .00001019  00000-0  93183-4 0  9996,2 49156  70.0002 232.5038 0003041 270.4188  89.6622 14.98327833142410,6950.2,96.107,574.178,569.951,0.0
49156.0,STARLINK-3085,PAYLOAD,2024-04-03 18:10:40,14.98331828,0.0003033,70.0003,231.8308,269.5858,90.4953,0.00010366,1.144e-05,0.0,0 STARLINK-3085,1 49156U 21082AC  24094.75741720  .00001144  00000-0  10366-3 0  9999,2 49156  70.0003 231.8308 0003033 269.5858  90.4953 14.98331828142457,6950.187,96.107,574.16,569.944,0.0
49156.0,STARLINK-3085,PAYLOAD,2024-04-04 15:00:26,14.98329566,0.0002891,70.0007,229.6429,269.6802,90.4025,-9.4913e-06,-2.06e-06,0.0,0 STARLINK-3085,1 49156U 21082AC  24095.62530100 -.00000206  00000-0 -94913-5 0  9996,2 49156  70.0007 229.6429 0002891 269.6802  90.4025 14.98329566142581,6950.194,96.107,574.069,570.05,0.0
49156.0,STARLINK-3085,PAYLOAD,2024-04-04 18:12:41,14.98331392,0.0002868,70.0007,229.3063,269.6785,90.4045,1.1204e-05,4.1e-07,0.0,0 STARLINK-3085,1 49156U 21082AC  24095.75881913  .00000041  00000-0  11204-4 0  9997,2 49156  70.0007 229.3063 0002868 269.6785  90.4045 14.98331392142601,6950.189,96.107,574.047,570.06,0.0
49156.0,STARLINK-3085,PAYLOAD,2024-04-05 15:02:26,14.98337385,0.0002914,70.0007,227.1188,269.3493,90.7332,5.183e-05,5.26e-06,0.0,0 STARLINK-3085,1 49156U 21082AC  24096.62669191  .00000526  00000-0  51830-4 0  9993,2 49156  70.0007 227.1188 0002914 269.3493  90.7332 14.98337385142734,6950.17,96.107,574.06,570.01,0.0
49156.0,STARLINK-3085,PAYLOAD,2024-04-05 18:14:42,14.98337611,0.0002916,70.0007,226.7822,269.3936,90.6889,5.2418e-05,5.33e-06,0.0,0 STARLINK-3085,1 49156U 21082AC  24096.76021116  .00000533  00000-0  52418-4 0  9998,2 49156  70.0007 226.7822 0002916 269.3936  90.6889 14.98337611142758,6950.169,96.107,574.061,570.008,0.0
49156.0,STARLINK-3085,PAYLOAD,2024-04-06 08:39:55,14.98329414,0.0002895,70.0006,225.267,269.3155,90.7673,1.4977e-05,8.6e-07,0.0,0 STARLINK-3085,1 49156U 21082AC  24097.36105581  .00000086  00000-0  14977-4 0  9995,2 49156  70.0006 225.2670 0002895 269.3155  90.7673 14.98329414142845,6950.195,96.107,574.072,570.048,0.0
49156.0,STARLINK-3085,PAYLOAD,2024-04-06 15:04:27,14.98329526,0.0002904,70.0008,224.595,270.5581,89.5245,1.1664e-05,4.6e-07,0.0,0 STARLINK-3085,1 49156U 21082AC  24097.62809601  .00000046  00000-0  11664-4 0  9994,2 49156  70.0008 224.5950 0002904 270.5581  89.5245 14.98329526142887,6950.194,96.107,574.078,570.041,0.0
49156.0,STARLINK-3085,PAYLOAD,2024-04-07 10:18:04,14.98325049,0.000294,70.0016,222.5747,270.8139,89.2683,-6.1781e-05,-8.3e-06,0.0,0 STARLINK-3085,1 49156U 21082AC  24098.42922176 -.00000830  00000-0 -61781-4 0  9994,2 49156  70.0016 222.5747 0002940 270.8139  89.2683 14.98325049143004,6950.208,96.107,574.117,570.03,0.0
49156.0,STARLINK-3085,PAYLOAD,2024-04-07 15:06:28,14.9831718,0.000278,70.0016,222.0679,269.7619,90.3222,0.00014432,1.629e-05,0.0,0 STARLINK-3085,1 49156U 21082AC  24098.62950172  .00001629  00000-0  14432-3 0  9998,2 49156  70.0016 222.0679 0002780 269.7619  90.3222 14.98317180143037,6950.233,96.108,574.03,570.165,0.0
49156.0,STARLINK-3085,PAYLOAD,2024-04-08 10:20:05,14.98329236,0.0003248,69.9998,220.0473,274.9388,85.14,4.9238e-05,4.95e-06,0.0,0 STARLINK-3085,1 49156U 21082AC  24099.43061693  .00000495  00000-0  49238-4 0  9992,2 49156  69.9998 220.0473 0003248 274.9388  85.1400 14.98329236143152,6950.195,96.107,574.318,569.803,0.0
49156.0,STARLINK-3085,PAYLOAD,2024-04-08 18:20:45,14.98332896,0.000284,70.0006,219.206,274.6584,85.4251,8.2996e-05,8.98e-06,0.0,0 STARLINK-3085,1 49156U 21082AC  24099.76441389  .00000898  00000-0  82996-4 0  9997,2 49156  70.0006 219.2060 0002840 274.6584  85.4251 14.98332896143208,6950.184,96.107,574.023,570.075,0.0
49156.0,STARLINK-3085,PAYLOAD,2024-04-09 10:22:06,14.98330933,0.0002677,70.0009,217.5234,271.8389,88.2463,6.83e-05,7.22e-06,0.0,0 STARLINK-3085,1 49156U 21082AC  24100.43201542  .00000722  00000-0  68300-4 0  9998,2 49156  70.0009 217.5234 0002677 271.8389  88.2463 14.98330933143302,6950.19,96.107,573.916,570.194,0.0
49156.0,STARLINK-3085,PAYLOAD,2024-04-10 13:36:23,14.98333985,0.0002776,70.0006,214.6623,267.308,92.7761,-9.0382e-06,-2.01e-06,0.0,0 STARLINK-3085,1 49156U 21082AC  24101.56693397 -.00000201  00000-0 -90382-5 0  9996,2 49156  70.0006 214.6623 0002776 267.3080  92.7761 14.98333985143476,6950.181,96.107,573.975,570.116,0.0
49156.0,STARLINK-3085,PAYLOAD,2024-04-11 13:38:24,14.98330976,0.0003152,70.0005,212.1387,272.3853,87.6945,1.0262e-05,2.9e-07,0.0,0 STARLINK-3085,1 49156U 21082AC  24102.56833435  .00000029  00000-0  10262-4 0  9990,2 49156  70.0005 212.1387 0003152 272.3853  87.6945 14.98330976143629,6950.19,96.107,574.246,569.864,0.0
49156.0,STARLINK-3085,PAYLOAD,2024-04-11 16:50:40,14.98332543,0.0003015,70.0008,211.8021,272.4615,87.6199,2.815e-05,2.43e-06,0.0,0 STARLINK-3085,1 49156U 21082AC  24102.70185278  .00000243  00000-0  28150-4 0  9994,2 49156  70.0008 211.8021 0003015 272.4615  87.6199 14.98332543143643,6950.185,96.107,574.146,569.955,0.0
49156.0,STARLINK-3085,PAYLOAD,2024-04-12 13:40:25,14.98330681,0.0003055,70.0007,209.6137,272.6219,87.4591,-3.9383e-06,-1.4e-06,0.0,0 STARLINK-3085,1 49156U 21082AC  24103.56973462 -.00000140  00000-0 -39383-5 0  9998,2 49156  70.0007 209.6137 0003055 272.6219  87.4591 14.98330681143770,6950.191,96.107,574.179,569.933,0.0
49156.0,STARLINK-3085,PAYLOAD,2024-04-12 15:16:32,14.98332442,0.000303,70.0007,209.4453,272.4315,87.6497,1.5229e-05,8.9e-07,0.0,0 STARLINK-3085,1 49156U 21082AC  24103.63649285  .00000089  00000-0  15229-4 0  9991,2 49156  70.0007 209.4453 0003030 272.4315  87.6497 14.98332442143782,6950.185,96.107,574.156,569.944,0.0
49156.0,STARLINK-3085,PAYLOAD,2024-04-13 12:06:18,14.98325702,0.0002948,70.001,207.2565,271.1093,88.9728,1.0605e-05,3.4e-07,0.0,0 STARLINK-3085,1 49156U 21082AC  24104.50437852  .00000034  00000-0  10605-4 0  9996,2 49156  70.0010 207.2565 0002948 271.1093  88.9728 14.98325702143919,6950.206,96.107,574.12,570.022,0.0
